GLOBALSTAR M057         
1 25943U 99058A   25260.00259429 -.00000087  00000+0  53073-4 0  9997
2 25943  51.9973  87.6302 0002343 182.8336 177.2501 12.24826821178182
GLOBALSTAR M059         
1 25944U 99058B   25260.21115870  .00000008  00000+0  11676-2 0  9995
2 25944  52.0037 318.2211 0000750 128.8530 265.6405 11.99986899585094
GLOBALSTAR M056         
1 25945U 99058C   25260.17576168 -.00000090  00000+0 -29450-4 0  9996
2 25945  51.9983 317.9165 0000835  26.4647   7.7303 12.04778988173712
GLOBALSTAR M031         
1 25946U 99058D   25260.24417133 -.00000092  00000+0 -14955-4 0  9997
2 25946  51.9952 204.5434 0001753  16.8438 131.5485 12.16040472175745
GLOBALSTAR M039         
1 25961U 99062A   25260.25131199 -.00000070  00000+0  18635-3 0  9998
2 25961  51.9874 348.3065 0002780 180.0047 180.0820 12.62332228191848
GLOBALSTAR M034         
1 25962U 99062B   25259.99633299 -.00000058  00000+0  37083-3 0  9990
2 25962  51.9857 132.7362 0013415 213.0652 256.7544 11.79448540149222
GLOBALSTAR M029         
1 25963U 99062C   25260.25302753 -.00000078  00000+0  10514-3 0  9992
2 25963  51.9791 206.0607 0002475 310.8811 197.9081 11.99900978180175
GLOBALSTAR M061         
1 25964U 99062D   25260.10081921 -.00000038  00000+0  69968-3 0  9991
2 25964  51.9813 317.7230 0006281 137.2530 232.4862 11.76776501132000
